start=new Date('2021-10-20T00:00:00.000Z').valueOf();
sats=[{"ARG_OF_PERICENTER":"84.1367","DECAY_DATE":null,"TLE_LINE2":"2 47620  53.0571  63.1798 0001353  84.1367 275.9776 15.06398965 38520","ELEMENT_SET_NO":"999","BSTAR":"-0.00000642310000","ECCENTRICITY":"0.00013530","PERIAPSIS":"546.280","CENTER_NAME":"EARTH","REV_AT_EPOCH":"3852","OBJECT_ID":"2021-012A","COUNTRY_CODE":"US","OBJECT_TYPE":"PAYLOAD","EPOCH":"2021-10-19T17:05:45.913344","REF_FRAME":"TEME","MEAN_ANOMALY":"275.9776","MEAN_MOTION_DDOT":"0.0000000000000","TIME_SYSTEM":"UTC","OBJECT_NAME":"STARLINK-1528","PERIOD":"95.592","SEMIMAJOR_AXIS":"6925.352","RCS_SIZE":"LARGE","MEAN_MOTION_DOT":"-0.00000377","RA_OF_ASC_NODE":"63.1798","CLASSIFICATION_TYPE":"U","SITE":"AFETR","MEAN_ELEMENT_THEORY":"SGP4","APOAPSIS":"548.154","EPHEMERIS_TYPE":"0","LAUNCH_DATE":"2021-02-16","GP_ID":"187631442","NORAD_CAT_ID":"47620","TLE_LINE1":"1 47620U 21012A   21292.71233696 -.00000377  00000-0 -64231-5 0  9998","INCLINATION":"53.0571","MEAN_MOTION":"15.06398965","FILE":"3172644"},{"OBJECT_TYPE":"PAYLOAD","EPOCH":"2021-10-19T15:19:35.808096","OBJECT_ID":"2021-012B","COUNTRY_CODE":"US","MEAN_ANOMALY":"249.4383","MEAN_MOTION_DDOT":"0.0000000000000","REF_FRAME":"TEME","TLE_LINE2":"2 47621  53.0561  63.4998 0001145 110.6729 249.4383 15.06407874 38521","DECAY_DATE":null,"BSTAR":"0.00010537000000","ECCENTRICITY":"0.00011450","ELEMENT_SET_NO":"999","ARG_OF_PERICENTER":"110.6729","CENTER_NAME":"EARTH","REV_AT_EPOCH":"3852","PERIAPSIS":"546.396","GP_ID":"187631687","NORAD_CAT_ID":"47621","LAUNCH_DATE":"2021-02-16","EPHEMERIS_TYPE":"0","MEAN_MOTION":"15.06407874","FILE":"3172644","INCLINATION":"53.0561","TLE_LINE1":"1 47621U 21012B   21292.63860889  .00001289  00000-0  10537-3 0  9999","PERIOD":"95.592","RCS_SIZE":"LARGE","MEAN_MOTION_DOT":"0.00001289","SEMIMAJOR_AXIS":"6925.324","TIME_SYSTEM":"UTC","OBJECT_NAME":"STARLINK-1609","APOAPSIS":"547.982","SITE":"AFETR","RA_OF_ASC_NODE":"63.4998","CLASSIFICATION_TYPE":"U","MEAN_ELEMENT_THEORY":"SGP4"},{"REV_AT_EPOCH":"3852","CENTER_NAME":"EARTH","PERIAPSIS":"546.359","ELEMENT_SET_NO":"999","BSTAR":"0.00014310000000","ECCENTRICITY":"0.00011960","DECAY_DATE":null,"TLE_LINE2":"2 47622  53.0559  63.2114 0001196  85.0539 275.0587 15.06408734 38524","ARG_OF_PERICENTER":"85.0539","MEAN_ANOMALY":"275.0587","MEAN_MOTION_DDOT":"0.0000000000000","REF_FRAME":"TEME","EPOCH":"2021-10-19T16:49:50.680992","OBJECT_TYPE":"PAYLOAD","COUNTRY_CODE":"US","OBJECT_ID":"2021-012C","APOAPSIS":"548.015","MEAN_ELEMENT_THEORY":"SGP4","RA_OF_ASC_NODE":"63.2114","CLASSIFICATION_TYPE":"U","SITE":"AFETR","SEMIMAJOR_AXIS":"6925.322","RCS_SIZE":"LARGE","MEAN_MOTION_DOT":"0.00001851","PERIOD":"95.592","OBJECT_NAME":"STARLINK-1645","TIME_SYSTEM":"UTC","INCLINATION":"53.0559","MEAN_MOTION":"15.06408734","FILE":"3172644","TLE_LINE1":"1 47622U 21012C   21292.70128103  .00001851  00000-0  14310-3 0  9992","NORAD_CAT_ID":"47622","GP_ID":"187629940","EPHEMERIS_TYPE":"0","LAUNCH_DATE":"2021-02-16"},{"APOAPSIS":"547.877","MEAN_ELEMENT_THEORY":"SGP4","CLASSIFICATION_TYPE":"U","RA_OF_ASC_NODE":"359.3533","SITE":"AFETR","SEMIMAJOR_AXIS":"6925.313","RCS_SIZE":"LARGE","MEAN_MOTION_DOT":"0.00001504","PERIOD":"95.591","OBJECT_NAME":"STARLINK-1655","TIME_SYSTEM":"UTC","INCLINATION":"53.0576","FILE":"3171120","MEAN_MOTION":"15.06411607","TLE_LINE1":"1 47623U 21012D   21292.44740283  .00001504  00000-0  11979-3 0  9996","GP_ID":"187570645","NORAD_CAT_ID":"47623","EPHEMERIS_TYPE":"0","LAUNCH_DATE":"2021-02-16","REV_AT_EPOCH":"3940","CENTER_NAME":"EARTH","PERIAPSIS":"546.479","ELEMENT_SET_NO":"999","BSTAR":"0.00011979000000","ECCENTRICITY":"0.00010100","DECAY_DATE":null,"TLE_LINE2":"2 47623  53.0576 359.3533 0001010  97.1202 262.9902 15.06411607 39401","ARG_OF_PERICENTER":"97.1202","MEAN_ANOMALY":"262.9902","MEAN_MOTION_DDOT":"0.0000000000000","REF_FRAME":"TEME","EPOCH":"2021-10-19T10:44:15.604512","OBJECT_TYPE":"PAYLOAD","COUNTRY_CODE":"US","OBJECT_ID":"2021-012D"},{"INCLINATION":"53.0566","MEAN_MOTION":"15.06398414","FILE":"3172644","TLE_LINE1":"1 47624U 21012E   21292.77315161  .00001125  00000-0  94402-4 0  9998","GP_ID":"187630943","NORAD_CAT_ID":"47624","EPHEMERIS_TYPE":"0","LAUNCH_DATE":"2021-02-16","APOAPSIS":"548.013","RA_OF_ASC_NODE":"42.8932","CLASSIFICATION_TYPE":"U","SITE":"AFETR","MEAN_ELEMENT_THEORY":"SGP4","PERIOD":"95.592","SEMIMAJOR_AXIS":"6925.353","MEAN_MOTION_DOT":"0.00001125","RCS_SIZE":"LARGE","TIME_SYSTEM":"UTC","OBJECT_NAME":"STARLINK-1669","MEAN_ANOMALY":"257.7354","MEAN_MOTION_DDOT":"0.0000000000000","REF_FRAME":"TEME","OBJECT_TYPE":"PAYLOAD","EPOCH":"2021-10-19T18:33:20.299104","OBJECT_ID":"2021-012E","COUNTRY_CODE":"US","CENTER_NAME":"EARTH","REV_AT_EPOCH":"3883","PERIAPSIS":"546.423","DECAY_DATE":null,"TLE_LINE2":"2 47624  53.0566  42.8932 0001148 102.3763 257.7354 15.06398414 38830","ELEMENT_SET_NO":"999","ECCENTRICITY":"0.00011480","BSTAR":"0.00009440200000","ARG_OF_PERICENTER":"102.3763"},{"GP_ID":"187631188","NORAD_CAT_ID":"47625","EPHEMERIS_TYPE":"0","LAUNCH_DATE":"2021-02-16","INCLINATION":"53.0562","MEAN_MOTION":"15.06399837","FILE":"3172644","TLE_LINE1":"1 47625U 21012F   21292.64229975 -.00000332  00000-0 -33680-5 0  9995","SEMIMAJOR_AXIS":"6925.349","MEAN_MOTION_DOT":"-0.00000332","RCS_SIZE":"LARGE","PERIOD":"95.592","OBJECT_NAME":"STARLINK-1704","TIME_SYSTEM":"UTC","APOAPSIS":"548.132","MEAN_ELEMENT_THEORY":"SGP4","CLASSIFICATION_TYPE":"U","RA_OF_ASC_NODE":"63.4819","SITE":"AFETR","EPOCH":"2021-10-19T15:24:54.698400","OBJECT_TYPE":"PAYLOAD","COUNTRY_CODE":"US","OBJECT_ID":"2021-012F","MEAN_ANOMALY":"259.3860","MEAN_MOTION_DDOT":"0.0000000000000","REF_FRAME":"TEME","ELEMENT_SET_NO":"999","BSTAR":"-0.00000336800000","ECCENTRICITY":"0.00013250","DECAY_DATE":null,"TLE_LINE2":"2 47625  53.0562  63.4819 0001325 100.7278 259.3860 15.06399837 38515","ARG_OF_PERICENTER":"100.7278","REV_AT_EPOCH":"3851","CENTER_NAME":"EARTH","PERIAPSIS":"546.296"},{"TLE_LINE2":"2 47626  53.0555  62.6453 0001289 109.6116 250.5013 15.06404858 38547","DECAY_DATE":null,"ECCENTRICITY":"0.00012890","BSTAR":"0.00004278200000","ELEMENT_SET_NO":"999","ARG_OF_PERICENTER":"109.6116","CENTER_NAME":"EARTH","REV_AT_EPOCH":"3854","PERIAPSIS":"546.306","OBJECT_TYPE":"PAYLOAD","EPOCH":"2021-10-19T19:50:17.453760","OBJECT_ID":"2021-012G","COUNTRY_CODE":"US","MEAN_MOTION_DDOT":"0.0000000000000","MEAN_ANOMALY":"250.5013","REF_FRAME":"TEME","PERIOD":"95.592","MEAN_MOTION_DOT":"0.00000356","RCS_SIZE":"LARGE","SEMIMAJOR_AXIS":"6925.334","TIME_SYSTEM":"UTC","OBJECT_NAME":"STARLINK-1761","APOAPSIS":"548.091","SITE":"AFETR","CLASSIFICATION_TYPE":"U","RA_OF_ASC_NODE":"62.6453","MEAN_ELEMENT_THEORY":"SGP4","GP_ID":"187630440","NORAD_CAT_ID":"47626","LAUNCH_DATE":"2021-02-16","EPHEMERIS_TYPE":"0","MEAN_MOTION":"15.06404858","FILE":"3172644","INCLINATION":"53.0555","TLE_LINE1":"1 47626U 21012G   21292.82659090  .00000356  00000-0  42782-4 0  9997"},{"ARG_OF_PERICENTER":"54.6876","DECAY_DATE":null,"TLE_LINE2":"2 47627  53.0473 326.8966 0001691  54.6876 108.8776 15.06391709  3655","ELEMENT_SET_NO":"999","BSTAR":"0.00252890000000","ECCENTRICITY":"0.00016910","PERIAPSIS":"546.068","CENTER_NAME":"EARTH","REV_AT_EPOCH":"365","OBJECT_ID":"2021-012H","COUNTRY_CODE":"US","OBJECT_TYPE":"PAYLOAD","EPOCH":"2021-10-20T00:00:00.999648","REF_FRAME":"TEME","MEAN_ANOMALY":"108.8776","MEAN_MOTION_DDOT":"0.0000000000000","TIME_SYSTEM":"UTC","OBJECT_NAME":"STARLINK-1972","PERIOD":"95.593","SEMIMAJOR_AXIS":"6925.374","RCS_SIZE":"LARGE","MEAN_MOTION_DOT":"0.00037580","RA_OF_ASC_NODE":"326.8966","CLASSIFICATION_TYPE":"U","SITE":"AFETR","MEAN_ELEMENT_THEORY":"SGP4","APOAPSIS":"548.410","EPHEMERIS_TYPE":"0","LAUNCH_DATE":"2021-02-16","GP_ID":"187630191","NORAD_CAT_ID":"47627","TLE_LINE1":"1 47627U 21012H   21293.00001157  .00037580  00000-0  25289-2 0  9994","INCLINATION":"53.0473","MEAN_MOTION":"15.06391709","FILE":"3172644"},{"TLE_LINE1":"1 47628U 21012J   21292.86346666  .00002528  00000-0  18845-3 0  9990","MEAN_MOTION":"15.06413193","FILE":"3172644","INCLINATION":"53.0573","LAUNCH_DATE":"2021-02-16","EPHEMERIS_TYPE":"0","GP_ID":"187631443","NORAD_CAT_ID":"47628","MEAN_ELEMENT_THEORY":"SGP4","SITE":"AFETR","CLASSIFICATION_TYPE":"U","RA_OF_ASC_NODE":"62.4980","APOAPSIS":"547.924","OBJECT_NAME":"STARLINK-1973","TIME_SYSTEM":"UTC","MEAN_MOTION_DOT":"0.00002528","RCS_SIZE":"LARGE","SEMIMAJOR_AXIS":"6925.308","PERIOD":"95.591","REF_FRAME":"TEME","MEAN_ANOMALY":"263.7268","MEAN_MOTION_DDOT":"0.0000000000000","COUNTRY_CODE":"US","OBJECT_ID":"2021-012J","EPOCH":"2021-10-19T20:43:23.519424","OBJECT_TYPE":"PAYLOAD","PERIAPSIS":"546.422","REV_AT_EPOCH":"3855","CENTER_NAME":"EARTH","ARG_OF_PERICENTER":"96.3844","BSTAR":"0.00018845000000","ECCENTRICITY":"0.00010840","ELEMENT_SET_NO":"999","TLE_LINE2":"2 47628  53.0573  62.4980 0001084  96.3844 263.7268 15.06413193 38556","DECAY_DATE":null},{"GP_ID":"187631688","NORAD_CAT_ID":"47629","LAUNCH_DATE":"2021-02-16","EPHEMERIS_TYPE":"0","FILE":"3172644","MEAN_MOTION":"15.73100426","INCLINATION":"53.0422","TLE_LINE1":"1 47629U 21012K   21293.00001157  .00090164  00000-0  64209-3 0  9999","PERIOD":"91.539","MEAN_MOTION_DOT":"0.00090164","RCS_SIZE":"LARGE","SEMIMAJOR_AXIS":"6728.179","TIME_SYSTEM":"UTC","OBJECT_NAME":"STARLINK-1974","APOAPSIS":"353.896","SITE":"AFETR","RA_OF_ASC_NODE":"319.5474","CLASSIFICATION_TYPE":"U","MEAN_ELEMENT_THEORY":"SGP4","OBJECT_TYPE":"PAYLOAD","EPOCH":"2021-10-20T00:00:00.999648","OBJECT_ID":"2021-012K","COUNTRY_CODE":"US","MEAN_MOTION_DDOT":"0.0000000000000","MEAN_ANOMALY":"87.7538","REF_FRAME":"TEME","TLE_LINE2":"2 47629  53.0422 319.5474 0005725 316.2868  87.7538 15.73100426  3709","DECAY_DATE":null,"BSTAR":"0.00064209000000","ECCENTRICITY":"0.00057250","ELEMENT_SET_NO":"999","ARG_OF_PERICENTER":"316.2868","CENTER_NAME":"EARTH","REV_AT_EPOCH":"370","PERIAPSIS":"346.192"}];
